[{"OBJECT_NAME":"NAPA-2","OBJECT_ID":"2021-059CN","EPOCH":"2026-03-09T23:29:49.102656","MEAN_MOTION":15.70952391,"ECCENTRICITY":0.00036606,"INCLINATION":97.6849,"RA_OF_ASC_NODE":256.4978,"ARG_OF_PERICENTER":316.466,"MEAN_ANOMALY":43.6312,"EPHEMERIS_TYPE":0,"CLASSIFICATION_TYPE":"U","NORAD_CAT_ID":48963,"ELEMENT_SET_NO":999,"REV_AT_EPOCH":26212,"BSTAR":0.00074486022,"MEAN_MOTION_DOT":0.00093758,"MEAN_MOTION_DDOT":0},{"OBJECT_NAME":"STARLINK-11463 [DTC]","OBJECT_ID":"2024-217K","EPOCH":"2026-03-09T10:22:48.205632","MEAN_MOTION":15.69758981,"ECCENTRICITY":0.00015369,"INCLINATION":53.158,"RA_OF_ASC_NODE":72.4873,"ARG_OF_PERICENTER":51.9228,"MEAN_ANOMALY":308.1928,"EPHEMERIS_TYPE":0,"CLASSIFICATION_TYPE":"U","NORAD_CAT_ID":62066,"ELEMENT_SET_NO":999,"REV_AT_EPOCH":7513,"BSTAR":0.0014924349,"MEAN_MOTION_DOT":0.00184673,"MEAN_MOTION_DDOT":0}]
